ONEWEB-0683             
1 56719U 23068K   25247.68831985 -.00000113  00000+0 -33319-3 0  9993
2 56719  87.9052 316.1440 0002074 105.2941 254.8419 13.15548543111886
ONEWEB-0684             
1 56720U 23068L   25247.69623443 -.00000054  00000+0 -17675-3 0  9995
2 56720  87.9036 316.1424 0000494  78.6266 281.4920 13.15548842111716
ONEWEB-0686             
1 56721U 23068M   25247.57109609  .00000034  00000+0  54160-4 0  9993
2 56721  87.8987 285.7306 0001837 103.2884 256.8452 13.16596309114131
ONEWEB-0694             
1 56722U 23068N   25247.15788780  .00000002  00000+0 -28712-4 0  9991
2 56722  87.9004 285.7412 0002175 105.0627 255.0745 13.16595208114135
ONEWEB-0696             
1 56723U 23068P   25247.72951110  .00000045  00000+0  86345-4 0  9996
2 56723  87.9054 316.1887 0001656  91.4178 268.7142 13.15548631111831
ONEWEB-0703             
1 56724U 23068Q   25247.73901774 -.00000027  00000+0 -10631-3 0  9995
2 56724  87.9045 316.1717 0001884  63.9788 296.1536 13.15548677111728
ONEWEB-0721             
1 56725U 23068R   25247.82663009  .00000051  00000+0  88093-4 0  9995
2 56725  86.6874 176.4801 0001931  75.1694 284.9654 13.22444794120224
ONEWEB-0015             
1 61594U 24188A   25247.57805801  .00000121  00000+0  30509-3 0  9995
2 61594  87.8779  78.0084 0002340  86.7753 273.3643 13.11419282 47028
